<?xml version="1.0" encoding="utf-8" ?>
<kml xmlns="http://www.opengis.net/kml/2.2">
<Document id="root_doc">
<Schema name="polygon" id="polygon">
	<SimpleField name="shd_nwm" type="float"></SimpleField>
</Schema>
<Folder><name>polygon</name>
  <Placemark>
	<Style><LineStyle><color>ff0000ff</color></LineStyle><PolyStyle><fill>0</fill></PolyStyle></Style>
	<ExtendedData><SchemaData schemaUrl="#polygon">
		<SimpleData name="shd_nwm">1</SimpleData>
	</SchemaData></ExtendedData>
      <Polygon><outerBoundaryIs><LinearRing><coordinates>-71.2420098275335,43.1853714472767 -71.2362899664385,43.1845628933216 -71.2363549732515,43.1843166867208 -71.2353456143345,43.1841739735071 -71.2352806037881,43.1844201788871 -71.2349441512115,43.1843726055129 -71.235139184124,43.1836339903255 -71.234802736101,43.1835864172241 -71.2350627734802,43.182601597351 -71.234726331255,43.1825540249293 -71.2348563475126,43.1820616152705 -71.2345199085963,43.1820140427148 -71.2345849167393,43.1817678381583 -71.2342484798874,43.1817202650615 -71.2343134884546,43.1814740608226 -71.2339770536672,43.1814264871848 -71.2340420626586,43.1811802832635 -71.2337056299355,43.1811327090848 -71.2338356479465,43.1806403017879 -71.233499218532,43.1805927274752 -71.2336292357511,43.1801003206348 -71.2332928096451,43.1800527461881 -71.2334878330557,43.1793141364781 -71.2331514115022,43.1792665623044 -71.2332164189097,43.179020359296 -71.2328799994204,43.1789727845814 -71.232945007252,43.1787265818906 -71.2326085898269,43.1786790066352 -71.2328036121334,43.1779403992473 -71.2324671992605,43.177892824265 -71.2325972125193,43.1774004197069 -71.2322608029545,43.1773528445907 -71.232585827971,43.1761218336663 -71.2322494254459,43.1760742596371 -71.2325744361822,43.1748432485134 -71.2322380406964,43.1747956755713 -71.2323680417389,43.1743032713102 -71.2320316495606,43.1742556982343 -71.2324216404726,43.1727784857482 -71.2327580251885,43.1728260563825 -71.2329530058451,43.1720874477125 -71.2326166248603,43.1720398782989 -71.2332015337535,43.1698240511264 -71.233537903546,43.169871616878 -71.2336028880807,43.1696254130052 -71.2339392574493,43.1696729774024 -71.2340042399208,43.1694267730335 -71.2343406088656,43.1694743360763 -71.2344055892739,43.1692281312112 -71.2347419577948,43.1692756928997 -71.2346769786301,43.1695218981716 -71.2350133492142,43.1695694593194 -71.2349483704733,43.1698156649089 -71.2352847431206,43.1698632255161 -71.2352197648037,43.1701094314231 -71.2358925150444,43.1702045506084 -71.235827538395,43.1704507572397 -71.2378458162493,43.1707360944951 -71.2377808462424,43.170982303478 -71.2391263861779,43.1711725109901 -71.2390614203265,43.1714187215108 -71.2393978086029,43.1714662714265 -71.2393328431757,43.1717124822647 -71.2396692335155,43.1717600316395 -71.2396042685127,43.1720062427952 -71.2399406609157,43.1720537916291 -71.2398756963372,43.1723000031022 -71.2412212791198,43.1724901905879 -71.2413511975063,43.1719977642986 -71.2426967834486,43.1721879333673 -71.2427617364372,43.171941718462 -71.2430981337273,43.1719892579532 -71.2431630846526,43.1717430425519 -71.2434994815181,43.1717905806888 -71.2436943256463,43.1710519327295 -71.2460491005222,43.1713846646118 -71.2459841620063,43.1716308835338 -71.246320562938,43.1716784132755 -71.2462556248469,43.1719246325149 -71.2476012417413,43.1721147436305 -71.2475363078072,43.172360964407 -71.2478727153227,43.172408490223 -71.2476779123376,43.1731471532371 -71.2473415010898,43.1730996262014 -71.2471466869997,43.1738382871929 -71.2478195177794,43.173933342756 -71.2476896426,43.1744257845973 -71.2480260617071,43.1744733117702 -71.2478961857392,43.1749657540678 -71.248232608154,43.175013281106 -71.2480377917908,43.1757519451031 -71.2483742187576,43.1757994724131 -71.2483092795757,43.1760456939736 -71.248645708606,43.1760932207422 -71.2484508898779,43.1768318861083 -71.2487873234605,43.1768794131487 -71.2484626154169,43.178110522341 -71.2481261756121,43.1780629932677 -71.2479962841706,43.178555435507 -71.2483327264643,43.1786029653935 -71.248267780759,43.1788491867859 -71.2455762553966,43.178468917897 -71.2456412110575,43.1782226997576 -71.245304775319,43.1781751622872 -71.2452398184137,43.1784213800199 -71.2449033822504,43.1783738411949 -71.2447085028845,43.1791124926377 -71.2450449427811,43.1791600326828 -71.2448500597728,43.1798986845424 -71.2445136161428,43.1798511432773 -71.2439938821035,43.1818208743889 -71.2443303356897,43.1818684189076 -71.2439405082026,43.1833457159327 -71.2442769700763,43.1833932619435 -71.2440820490008,43.1841319104711 -71.2437455833931,43.1840843632401 -71.2434856721705,43.1850692250668 -71.2438221427572,43.1851167739248 -71.2437571641469,43.1853629895651 -71.2420748131875,43.1851252337596 -71.2420098275335,43.1853714472767</coordinates></LinearRing></outerBoundaryIs></Polygon>
  </Placemark>
</Folder>
</Document></kml>
